{
    "links": {
        "self": "http://www.neowsapp.com/rest/v1/neo/3802030?api_key=iIulBulltgU6a56xZRHN4H3l9WmuAYTsLGpBGhQ2"
    },
    "id": "3802030",
    "neo_reference_id": "3802030",
    "name": "(2018 FU2)",
    "designation": "2018 FU2",
    "nasa_jpl_url": "http://ssd.jpl.nasa.gov/sbdb.cgi?sstr=3802030",
    "absolute_magnitude_h": 26.7,
    "estimated_diameter": {
        "kilometers": {
            "estimated_diameter_min": 0.0121494041,
            "estimated_diameter_max": 0.0271668934
        },
        "meters": {
            "estimated_diameter_min": 12.14940408,
            "estimated_diameter_max": 27.1668934089
        },
        "miles": {
            "estimated_diameter_min": 0.0075492874,
            "estimated_diameter_max": 0.0168807197
        },
        "feet": {
            "estimated_diameter_min": 39.8602508817,
            "estimated_diameter_max": 89.1302305717
        }
    },
    "is_potentially_hazardous_asteroid": false,
    "close_approach_data": [
        {
            "close_approach_date": "2018-03-10",
            "close_approach_date_full": "2018-Mar-10 05:41",
            "epoch_date_close_approach": 1520660460000,
            "relative_velocity": {
                "kilometers_per_second": "11.8773849603",
                "kilometers_per_hour": "42758.5858570494",
                "miles_per_hour": "26568.5224176761"
            },
            "miss_distance": {
                "astronomical": "0.0266529198",
                "lunar": "10.3679858022",
                "kilometers": "3987220.031360826",
                "miles": "2477543.6422623588"
            },
            "orbiting_body": "Earth"
        }
    ],
    "orbital_data": {
        "orbit_id": "1",
        "orbit_determination_date": "2018-03-21 09:47:00",
        "first_observation_date": "2018-03-18",
        "last_observation_date": "2018-03-21",
        "data_arc_in_days": 3,
        "observations_used": 9,
        "orbit_uncertainty": "9",
        "minimum_orbit_intersection": ".0186642",
        "jupiter_tisserand_invariant": "3.460",
        "epoch_osculation": "2458196.5",
        "eccentricity": ".5809347964342153",
        "semi_major_axis": "2.152281798552962",
        "inclination": "5.435019666747532",
        "ascending_node_longitude": "357.465967620694",
        "orbital_period": "1153.312837826535",
        "perihelion_distance": ".9019464100415303",
        "perihelion_argument": "126.668885275689",
        "aphelion_distance": "3.402617187064394",
        "perihelion_time": "2458154.818324133465",
        "mean_anomaly": "13.01069650818324",
        "mean_motion": ".3121442753368068",
        "equinox": "J2000",
        "orbit_class": {
            "orbit_class_type": "APO",
            "orbit_class_description": "Near-Earth asteroid orbits which cross the Earth’s orbit similar to that of 1862 Apollo",
            "orbit_class_range": "a (semi-major axis) > 1.0 AU; q (perihelion) < 1.017 AU"
        }
    },
    "is_sentry_object": false
}